{
  "type": "FeatureCollection",
  "features": [
    {
      "type": "Feature",
      "properties": {
        "norad_id": 67053,
        "name": "STARLINK-35739",
        "group": "last-30-days",
        "lat": 19.43936848236933,
        "lon": 121.64945515581216,
        "alt_km": 366.1965816173051,
        "timestamp": "2025-12-26T06:43:28.236643+00:00",
        "meta_object_name": "STARLINK-35739",
        "meta_object_id": "2025-294Z",
        "meta_epoch": "2025-12-25T22:00:01.999584",
        "meta_mean_motion": 15.68072106,
        "meta_eccentricity": 0.00013829,
        "meta_inclination": 43.0002,
        "meta_ra_of_asc_node": 101.5742,
        "meta_arg_of_pericenter": 286.2068,
        "meta_mean_anomaly": 209.6499,
        "meta_ephemeris_type": 0,
        "meta_classification_type": "U",
        "meta_norad_cat_id": 67053,
        "meta_element_set_no": 999,
        "meta_rev_at_epoch": 206,
        "meta_bstar": -0.019670811,
        "meta_mean_motion_dot": -0.019841,
        "meta_mean_motion_ddot": 0,
        "tle_line1": "1 67053U 25294Z   25359.91668981 -.01984100  00000+0 -19671-1 0  9994",
        "tle_line2": "2 67053  43.0002 101.5742 0001382 286.2068 209.6499 15.68072106  2061"
      },
      "geometry": {
        "type": "Point",
        "coordinates": [
          121.64945515581216,
          19.43936848236933
        ]
      }
    },
    {
      "type": "Feature",
      "properties": {
        "norad_id": 67054,
        "name": "STARLINK-35754",
        "group": "last-30-days",
        "lat": 20.810970017006152,
        "lon": 123.46045644352006,
        "alt_km": 366.06793969305727,
        "timestamp": "2025-12-26T06:43:28.236653+00:00",
        "meta_object_name": "STARLINK-35754",
        "meta_object_id": "2025-294AA",
        "meta_epoch": "2025-12-25T22:00:01.999584",
        "meta_mean_motion": 15.68052318,
        "meta_eccentricity": 0.00014033,
        "meta_inclination": 43,
        "meta_ra_of_asc_node": 101.5688,
        "meta_arg_of_pericenter": 286.611,
        "meta_mean_anomaly": 211.4578,
        "meta_ephemeris_type": 0,
        "meta_classification_type": "U",
        "meta_norad_cat_id": 67054,
        "meta_element_set_no": 999,
        "meta_rev_at_epoch": 222,
        "meta_bstar": -0.01967879,
        "meta_mean_motion_dot": -0.01983392,
        "meta_mean_motion_ddot": 0,
        "tle_line1": "1 67054U 25294AA  25359.91668981 -.01983392  00000+0 -19679-1 0  9995",
        "tle_line2": "2 67054  43.0000 101.5688 0001403 286.6110 211.4578 15.68052318  2225"
      },
      "geometry": {
        "type": "Point",
        "coordinates": [
          123.46045644352006,
          20.810970017006152
        ]
      }
    },
    {
      "type": "Feature",
      "properties": {
        "norad_id": 67055,
        "name": "STARLINK-35790",
        "group": "last-30-days",
        "lat": 22.135632579878482,
        "lon": 125.2653063133164,
        "alt_km": 365.98839403098464,
        "timestamp": "2025-12-26T06:43:28.236665+00:00",
        "meta_object_name": "STARLINK-35790",
        "meta_object_id": "2025-294AB",
        "meta_epoch": "2025-12-25T22:00:01.999584",
        "meta_mean_motion": 15.68033245,
        "meta_eccentricity": 0.00014188,
        "meta_inclination": 43,
        "meta_ra_of_asc_node": 101.5625,
        "meta_arg_of_pericenter": 284.6675,
        "meta_mean_anomaly": 215.5664,
        "meta_ephemeris_type": 0,
        "meta_classification_type": "U",
        "meta_norad_cat_id": 67055,
        "meta_element_set_no": 999,
        "meta_rev_at_epoch": 242,
        "meta_bstar": -0.019658904,
        "meta_mean_motion_dot": -0.01980261,
        "meta_mean_motion_ddot": 0,
        "tle_line1": "1 67055U 25294AB  25359.91668981 -.01980261  00000+0 -19659-1 0  9996",
        "tle_line2": "2 67055  43.0000 101.5625 0001418 284.6675 215.5664 15.68033245  2428"
      },
      "geometry": {
        "type": "Point",
        "coordinates": [
          125.2653063133164,
          22.135632579878482
        ]
      }
    },
    {
      "type": "Feature",
      "properties": {
        "norad_id": 67056,
        "name": "STARLINK-36143",
        "group": "last-30-days",
        "lat": 25.720428905645804,
        "lon": 130.49468365447603,
        "alt_km": 365.5776976504394,
        "timestamp": "2025-12-26T06:43:28.236675+00:00",
        "meta_object_name": "STARLINK-36143",
        "meta_object_id": "2025-294AC",
        "meta_epoch": "2025-12-25T22:00:01.999584",
        "meta_mean_motion": 15.68018683,
        "meta_eccentricity": 0.00013816,
        "meta_inclination": 42.9998,
        "meta_ra_of_asc_node": 101.5474,
        "meta_arg_of_pericenter": 283.933,
        "meta_mean_anomaly": 222.3024,
        "meta_ephemeris_type": 0,
        "meta_classification_type": "U",
        "meta_norad_cat_id": 67056,
        "meta_element_set_no": 999,
        "meta_rev_at_epoch": 242,
        "meta_bstar": -0.019714515,
        "meta_mean_motion_dot": -0.01984109,
        "meta_mean_motion_ddot": 0,
        "tle_line1": "1 67056U 25294AC  25359.91668981 -.01984109  00000+0 -19715-1 0  9995",
        "tle_line2": "2 67056  42.9998 101.5474 0001381 283.9330 222.3024 15.68018683  2429"
      },
      "geometry": {
        "type": "Point",
        "coordinates": [
          130.49468365447603,
          25.720428905645804
        ]
      }
    },
    {
      "type": "Feature",
      "properties": {
        "norad_id": 67057,
        "name": "STARLINK-36141",
        "group": "last-30-days",
        "lat": 24.52135008418857,
        "lon": 128.68331282558006,
        "alt_km": 365.68122859992855,
        "timestamp": "2025-12-26T06:43:28.236686+00:00",
        "meta_object_name": "STARLINK-36141",
        "meta_object_id": "2025-294AD",
        "meta_epoch": "2025-12-25T22:00:01.999584",
        "meta_mean_motion": 15.68028256,
        "meta_eccentricity": 0.00014109,
        "meta_inclination": 42.9998,
        "meta_ra_of_asc_node": 101.5528,
        "meta_arg_of_pericenter": 285.5064,
        "meta_mean_anomaly": 218.6821,
        "meta_ephemeris_type": 0,
        "meta_classification_type": "U",
        "meta_norad_cat_id": 67057,
        "meta_element_set_no": 999,
        "meta_rev_at_epoch": 234,
        "meta_bstar": -0.019706181,
        "meta_mean_motion_dot": -0.01984087,
        "meta_mean_motion_ddot": 0,
        "tle_line1": "1 67057U 25294AD  25359.91668981 -.01984087  00000+0 -19706-1 0  9991",
        "tle_line2": "2 67057  42.9998 101.5528 0001410 285.5064 218.6821 15.68028256  2346"
      },
      "geometry": {
        "type": "Point",
        "coordinates": [
          128.68331282558006,
          24.52135008418857
        ]
      }
    },
    {
      "type": "Feature",
      "properties": {
        "norad_id": 67058,
        "name": "STARLINK-35767",
        "group": "last-30-days",
        "lat": 23.35129515909073,
        "lon": 126.97813630048493,
        "alt_km": 365.8480354616031,
        "timestamp": "2025-12-26T06:43:28.236696+00:00",
        "meta_object_name": "STARLINK-35767",
        "meta_object_id": "2025-294AE",
        "meta_epoch": "2025-12-25T22:00:01.999584",
        "meta_mean_motion": 15.68023234,
        "meta_eccentricity": 0.00012519,
        "meta_inclination": 43.0003,
        "meta_ra_of_asc_node": 101.5579,
        "meta_arg_of_pericenter": 283.019,
        "meta_mean_anomaly": 219.2234,
        "meta_ephemeris_type": 0,
        "meta_classification_type": "U",
        "meta_norad_cat_id": 67058,
        "meta_element_set_no": 999,
        "meta_rev_at_epoch": 222,
        "meta_bstar": -0.019634929,
        "meta_mean_motion_dot": -0.01977282,
        "meta_mean_motion_ddot": 0,
        "tle_line1": "1 67058U 25294AE  25359.91668981 -.01977282  00000+0 -19635-1 0  9992",
        "tle_line2": "2 67058  43.0003 101.5579 0001251 283.0190 219.2234 15.68023234  2221"
      },
      "geometry": {
        "type": "Point",
        "coordinates": [
          126.97813630048493,
          23.35129515909073
        ]
      }
    },
    {
      "type": "Feature",
      "properties": {
        "norad_id": 67059,
        "name": "HULIANWANG DIGUI-119",
        "group": "last-30-days",
        "lat": -30.263795141763207,
        "lon": 164.45667132190508,
        "alt_km": 810.3585452704419,
        "timestamp": "2025-12-26T06:43:28.236706+00:00",
        "meta_object_name": "HULIANWANG DIGUI-119",
        "meta_object_id": "2025-295A",
        "meta_epoch": "2025-12-25T22:57:20.167488",
        "meta_mean_motion": 14.24617098,
        "meta_eccentricity": 0.00140131,
        "meta_inclination": 50.005,
        "meta_ra_of_asc_node": 316.4911,
        "meta_arg_of_pericenter": 293.0268,
        "meta_mean_anomaly": 66.9167,
        "meta_ephemeris_type": 0,
        "meta_classification_type": "U",
        "meta_norad_cat_id": 67059,
        "meta_element_set_no": 999,
        "meta_rev_at_epoch": 200,
        "meta_bstar": 7.2554692e-05,
        "meta_mean_motion_dot": 1e-07,
        "meta_mean_motion_ddot": 0,
        "tle_line1": "1 67059U 25295A   25359.95648342  .00000010  00000+0  72555-4 0  9993",
        "tle_line2": "2 67059  50.0050 316.4911 0014013 293.0268  66.9167 14.24617098  2002"
      },
      "geometry": {
        "type": "Point",
        "coordinates": [
          164.45667132190508,
          -30.263795141763207
        ]
      }
    }
  ]
}